NORAD_CAT_ID,OBJECT_NAME,OBJECT_TYPE,EPOCH,MEAN_MOTION,ECCENTRICITY,INCLINATION,RA_OF_ASC_NODE,ARG_OF_PERICENTER,MEAN_ANOMALY,BSTAR,MEAN_MOTION_DOT,MEAN_MOTION_DDOT,TLE_LINE0,TLE_LINE1,TLE_LINE2,SEMIMAJOR_AXIS,PERIOD,APOGEE,PERIGEE,DECAYED
56466.0,STARLINK-6053,PAYLOAD,2024-07-31 21:35:37,14.98322873,0.0002876,70.0005,181.3078,269.7667,90.3163,-5.0854e-05,-7e-06,0.0,0 STARLINK-6053,1 56466U 23064U   24213.89973585 -.00000700  00000-0 -50854-4 0  9993,2 56466  70.0005 181.3078 0002876 269.7667  90.3163 14.98322873 67861,6950.215,96.107,574.079,570.081,0.0
56466.0,STARLINK-6053,PAYLOAD,2024-07-31 23:11:45,14.98322548,0.000288,70.0005,181.1394,269.7197,90.3632,-5.4847e-05,-7.47e-06,0.0,0 STARLINK-6053,1 56466U 23064U   24213.96649634 -.00000747  00000-0 -54847-4 0  9993,2 56466  70.0005 181.1394 0002880 269.7197  90.3632 14.98322548 67515,6950.216,96.107,574.083,570.079,0.0
56466.0,STARLINK-6053,PAYLOAD,2024-08-01 08:48:33,14.98330106,0.0002807,70.0006,180.1294,269.5848,90.4989,3.0634e-05,2.73e-06,0.0,0 STARLINK-6053,1 56466U 23064U   24214.36705016  .00000273  00000-0  30634-4 0  9995,2 56466  70.0006 180.1294 0002807 269.5848  90.4989 14.98330106 67935,6950.193,96.107,574.008,570.107,0.0
56466.0,STARLINK-6053,PAYLOAD,2024-08-01 23:13:45,14.98334367,0.0002806,70.0009,178.6155,269.7151,90.3686,-2.3161e-05,-3.69e-06,0.0,0 STARLINK-6053,1 56466U 23064U   24214.96788859 -.00000369  00000-0 -23161-4 0  9992,2 56466  70.0009 178.6155 0002806 269.7151  90.3686 14.98334367 67660,6950.179,96.107,573.995,570.094,0.0
56466.0,STARLINK-6053,PAYLOAD,2024-08-02 07:14:25,14.98337548,0.000271,70.0008,177.7741,266.2593,93.8257,4.2625e-06,-4.2e-07,0.0,0 STARLINK-6053,1 56466U 23064U   24215.30168497 -.00000042  00000-0  42625-5 0  9995,2 56466  70.0008 177.7741 0002710 266.2593  93.8257 14.98337548 67718,6950.17,96.107,573.918,570.151,0.0
56466.0,STARLINK-6053,PAYLOAD,2024-08-02 15:15:06,14.98319191,0.0002817,70.0002,176.9293,276.5078,83.5761,0.00015644,1.774e-05,0.0,0 STARLINK-6053,1 56466U 23064U   24215.63549283  .00001774  00000-0  15644-3 0  9998,2 56466  70.0002 176.9293 0002817 276.5078  83.5761 14.98319191 68121,6950.226,96.108,574.049,570.133,0.0
56466.0,STARLINK-6053,PAYLOAD,2024-08-03 07:16:27,14.98325378,0.0002668,70.0008,175.2482,269.2191,90.8662,3.7605e-05,3.56e-06,0.0,0 STARLINK-6053,1 56466U 23064U   24216.30309288  .00000356  00000-0  37605-4 0  9999,2 56466  70.0008 175.2482 0002668 269.2191  90.8662 14.98325378 67863,6950.207,96.107,573.926,570.218,0.0
56466.0,STARLINK-6053,PAYLOAD,2024-08-03 15:17:07,14.98328651,0.0002637,70.0009,174.4057,271.164,88.9217,1.8132e-05,1.23e-06,0.0,0 STARLINK-6053,1 56466U 23064U   24216.63689212  .00000123  00000-0  18132-4 0  9999,2 56466  70.0009 174.4057 0002637 271.1640  88.9217 14.98328651 68277,6950.197,96.107,573.895,570.229,0.0
56466.0,STARLINK-6053,PAYLOAD,2024-08-03 21:41:39,14.98334548,0.0002695,70.0007,173.7324,271.0077,89.0773,2.2002e-05,1.7e-06,0.0,0 STARLINK-6053,1 56466U 23064U   24216.90392812  .00000170  00000-0  22002-4 0  9999,2 56466  70.0007 173.7324 0002695 271.0077  89.0773 14.98334548 67956,6950.179,96.107,573.917,570.171,0.0
56466.0,STARLINK-6053,PAYLOAD,2024-08-04 04:06:11,14.9833636,0.0002724,70.0008,173.0593,271.9224,88.1623,7.5253e-05,8.05e-06,0.0,0 STARLINK-6053,1 56466U 23064U   24217.17096481  .00000805  00000-0  75253-4 0  9993,2 56466  70.0008 173.0593 0002724 271.9224  88.1623 14.98336360 68357,6950.173,96.107,573.931,570.145,0.0
56466.0,STARLINK-6053,PAYLOAD,2024-08-04 07:18:27,14.98338105,0.0002731,70.0006,172.7229,267.1415,92.9432,7.4009e-05,7.9e-06,0.0,0 STARLINK-6053,1 56466U 23064U   24217.30448307  .00000790  00000-0  74009-4 0  9997,2 56466  70.0006 172.7229 0002731 267.1415  92.9432 14.98338105 68017,6950.168,96.106,573.931,570.135,0.0
56466.0,STARLINK-6053,PAYLOAD,2024-08-04 21:43:40,14.9832806,0.0002702,70.0012,171.2096,270.2924,89.7925,9.0148e-05,9.83e-06,0.0,0 STARLINK-6053,1 56466U 23064U   24217.90532767  .00000983  00000-0  90148-4 0  9993,2 56466  70.0012 171.2096 0002702 270.2924  89.7925 14.98328060 68108,6950.199,96.107,573.942,570.186,0.0
56466.0,STARLINK-6053,PAYLOAD,2024-08-05 04:08:12,14.98333115,0.0002555,70.0013,170.5364,269.457,90.6297,0.0001359,1.529e-05,0.0,0 STARLINK-6053,1 56466U 23064U   24218.17236337  .00001529  00000-0  13590-3 0  9999,2 56466  70.0013 170.5364 0002555 269.4570  90.6297 14.98333115 68506,6950.183,96.107,573.824,570.272,0.0
56466.0,STARLINK-6053,PAYLOAD,2024-08-05 13:45:01,14.98325934,0.0002794,70.0007,169.5251,267.1541,92.9298,-3.9007e-05,-5.58e-06,0.0,0 STARLINK-6053,1 56466U 23064U   24218.57293006 -.00000558  00000-0 -39007-4 0  9994,2 56466  70.0007 169.5251 0002794 267.1541  92.9298 14.98325934 68562,6950.205,96.107,574.012,570.129,0.0
56466.0,STARLINK-6053,PAYLOAD,2024-08-05 21:45:42,14.98321928,0.0002285,70.0014,168.6851,269.4636,90.6261,-9.8014e-05,-1.262e-05,0.0,0 STARLINK-6053,1 56466U 23064U   24218.90673786 -.00001262  00000-0 -98014-4 0  9994,2 56466  70.0014 168.6851 0002285 269.4636  90.6261 14.98321928 68251,6950.218,96.108,573.671,570.495,0.0
56466.0,STARLINK-6053,PAYLOAD,2024-08-06 04:10:15,14.98312049,0.0002589,70.0018,168.0124,262.5703,97.5162,-0.00020174,-2.498e-05,0.0,0 STARLINK-6053,1 56466U 23064U   24219.17378796 -.00002498  00000-0 -20174-3 0  9990,2 56466  70.0018 168.0124 0002589 262.5703  97.5162 14.98312049 68652,6950.248,96.108,573.913,570.314,0.0
56466.0,STARLINK-6053,PAYLOAD,2024-08-06 13:47:03,14.98322276,0.0002641,70.0009,167.002,263.4415,96.6443,-7.7121e-05,-1.013e-05,0.0,0 STARLINK-6053,1 56466U 23064U   24219.57434086 -.00001013  00000-0 -77121-4 0  9996,2 56466  70.0009 167.0020 0002641 263.4415  96.6443 14.98322276 68357,6950.217,96.107,573.917,570.246,0.0
56466.0,STARLINK-6053,PAYLOAD,2024-08-06 21:47:42,14.9833208,0.0002827,70.0002,166.1589,266.5031,93.5804,-7.4517e-06,-1.82e-06,0.0,0 STARLINK-6053,1 56466U 23064U   24219.90813329 -.00000182  00000-0 -74517-5 0  9997,2 56466  70.0002 166.1589 0002827 266.5031  93.5804 14.98332080 68401,6950.186,96.107,574.016,570.087,0.0
56466.0,STARLINK-6053,PAYLOAD,2024-08-07 04:12:14,14.98337209,0.0002761,70.0005,165.486,264.8825,95.2019,5.9313e-05,6.15e-06,0.0,0 STARLINK-6053,1 56466U 23064U   24220.17516815  .00000615  00000-0  59313-4 0  9993,2 56466  70.0005 165.4860 0002761 264.8825  95.2019 14.98337209 68806,6950.171,96.107,573.955,570.117,0.0
56466.0,STARLINK-6053,PAYLOAD,2024-08-07 05:48:22,14.98338549,0.0002743,70.0006,165.3177,264.7005,95.3841,7.6941e-05,8.25e-06,0.0,0 STARLINK-6053,1 56466U 23064U   24220.24192670  .00000825  00000-0  76941-4 0  9999,2 56466  70.0006 165.3177 0002743 264.7005  95.3841 14.98338549 68459,6950.166,96.106,573.938,570.125,0.0
56466.0,STARLINK-6053,PAYLOAD,2024-08-08 05:50:23,14.98329776,0.0002588,70.0013,162.794,250.5682,109.5197,0.00027701,3.214e-05,0.0,0 STARLINK-6053,1 56466U 23064U   24221.24332718  .00003214  00000-0  27701-3 0  9993,2 56466  70.0013 162.7940 0002588 250.5682 109.5197 14.98329776 68608,6950.194,96.107,573.857,570.26,0.0
56466.0,STARLINK-6053,PAYLOAD,2024-08-08 20:15:36,14.98319675,0.0002593,70.0022,161.2809,245.5979,114.491,0.00030303,3.524e-05,0.0,0 STARLINK-6053,1 56466U 23064U   24221.84417216  .00003524  00000-0  30303-3 0  9992,2 56466  70.0022 161.2809 0002593 245.5979 114.4910 14.98319675 69050,6950.225,96.108,573.892,570.288,0.0
56466.0,STARLINK-6053,PAYLOAD,2024-08-08 21:51:44,14.9831363,0.0002652,70.002,161.1128,245.0338,115.0546,0.00033775,3.938e-05,0.0,0 STARLINK-6053,1 56466U 23064U   24221.91093536  .00003938  00000-0  33775-3 0  9990,2 56466  70.0020 161.1128 0002652 245.0338 115.0546 14.98313630 68709,6950.244,96.108,573.952,570.265,0.0
56466.0,STARLINK-6053,PAYLOAD,2024-08-09 04:16:16,14.98335953,0.0002494,70.0022,160.4402,237.9768,122.1149,-4.1685e-06,-1.43e-06,0.0,0 STARLINK-6053,1 56466U 23064U   24222.17796868 -.00000143  00000-0 -41685-5 0  9995,2 56466  70.0022 160.4402 0002494 237.9768 122.1149 14.98335953 69104,6950.174,96.107,573.773,570.306,0.0
56466.0,STARLINK-6053,PAYLOAD,2024-08-09 13:53:05,14.98336265,0.000181,70.0033,159.4274,285.55,74.5459,-2.0468e-05,-3.37e-06,0.0,0 STARLINK-6053,1 56466U 23064U   24222.57853150 -.00000337  00000-0 -20468-4 0  9997,2 56466  70.0033 159.4274 0001810 285.5500  74.5459 14.98336265 68802,6950.174,96.107,573.296,570.781,0.0
56466.0,STARLINK-6053,PAYLOAD,2024-08-09 21:53:45,14.9833431,0.0002095,70.0037,158.5848,279.5642,80.528,-3.0869e-05,-4.61e-06,0.0,0 STARLINK-6053,1 56466U 23064U   24222.91233039 -.00000461  00000-0 -30869-4 0  9997,2 56466  70.0037 158.5848 0002095 279.5642  80.5280 14.98334310 68852,6950.18,96.107,573.501,570.589,0.0
56466.0,STARLINK-6053,PAYLOAD,2024-08-10 04:18:17,14.98333347,0.0002403,70.0016,157.9106,266.8872,93.2012,5.1177e-05,5.18e-06,0.0,0 STARLINK-6053,1 56466U 23064U   24223.17936577  .00000518  00000-0  51177-4 0  9999,2 56466  70.0016 157.9106 0002403 266.8872  93.2012 14.98333347 69254,6950.183,96.107,573.718,570.377,0.0
56466.0,STARLINK-6053,PAYLOAD,2024-08-10 21:55:45,14.98347532,0.0002125,70.0023,156.061,258.2488,101.8433,-0.00020909,-2.588e-05,0.0,0 STARLINK-6053,1 56466U 23064U   24223.91372232 -.00002588  00000-0 -20909-3 0  9992,2 56466  70.0023 156.0610 0002125 258.2488 101.8433 14.98347532 69008,6950.139,96.106,573.481,570.527,0.0
56466.0,STARLINK-6053,PAYLOAD,2024-08-11 12:20:57,14.98340091,0.0002105,70.0033,154.5421,295.2205,64.8736,8.671e-06,1.1e-07,0.0,0 STARLINK-6053,1 56466U 23064U   24224.51455968  .00000011  00000-0  86710-5 0  9998,2 56466  70.0033 154.5421 0002105 295.2205  64.8736 14.98340091 69454,6950.162,96.106,573.49,570.564,0.0
56466.0,STARLINK-6053,PAYLOAD,2024-08-11 21:57:46,14.98330879,0.0002261,70.0016,153.5352,272.9768,87.1132,1.4e-05,7.4e-07,0.0,0 STARLINK-6053,1 56466U 23064U   24224.91512386  .00000074  00000-0  14000-4 0  9991,2 56466  70.0016 153.5352 0002261 272.9768  87.1132 14.98330879 69154,6950.19,96.107,573.627,570.484,0.0
